{
  "links" : {
    "next" : "https://api.nasa.gov/neo/rest/v1/feed?start_date=2009-12-09&end_date=2009-12-09&detailed=true&api_key=t0TVs3DtDT2H8Oy2Zy8m2eVrNsAVKAexjcZXUckd",
    "prev" : "https://api.nasa.gov/neo/rest/v1/feed?start_date=2009-12-07&end_date=2009-12-07&detailed=true&api_key=t0TVs3DtDT2H8Oy2Zy8m2eVrNsAVKAexjcZXUckd",
    "self" : "https://api.nasa.gov/neo/rest/v1/feed?start_date=2009-12-08&end_date=2009-12-08&detailed=true&api_key=t0TVs3DtDT2H8Oy2Zy8m2eVrNsAVKAexjcZXUckd"
  },
  "element_count" : 5,
  "near_earth_objects" : {
    "2009-12-08" : [ {
      "links" : {
        "self" : "https://api.nasa.gov/neo/rest/v1/neo/3374668?api_key=t0TVs3DtDT2H8Oy2Zy8m2eVrNsAVKAexjcZXUckd"
      },
      "neo_reference_id" : "3374668",
      "name" : "(2007 HD15)",
      "nasa_jpl_url" : "http://ssd.jpl.nasa.gov/sbdb.cgi?sstr=3374668",
      "absolute_magnitude_h" : 24.0,
      "estimated_diameter" : {
        "kilometers" : {
          "estimated_diameter_min" : 0.0421264611,
          "estimated_diameter_max" : 0.0941976306
        },
        "meters" : {
          "estimated_diameter_min" : 42.1264610556,
          "estimated_diameter_max" : 94.1976305719
        },
        "miles" : {
          "estimated_diameter_min" : 0.0261761612,
          "estimated_diameter_max" : 0.0585316759
        },
        "feet" : {
          "estimated_diameter_min" : 138.2101784897,
          "estimated_diameter_max" : 309.0473542854
        }
      },
      "is_potentially_hazardous_asteroid" : false,
      "close_approach_data" : [ {
        "close_approach_date" : "2009-12-08",
        "epoch_date_close_approach" : 1260259200000,
        "relative_velocity" : {
          "kilometers_per_second" : "17.6298695313",
          "kilometers_per_hour" : "63467.530312775",
          "miles_per_hour" : "39436.255154624"
        },
        "miss_distance" : {
          "astronomical" : "0.4419434002",
          "lunar" : "171.9159851074",
          "kilometers" : "66113792",
          "miles" : "41081208"
        },
        "orbiting_body" : "Earth"
      } ],
      "orbital_data" : {
        "orbit_id" : "13",
        "orbit_determination_date" : "2017-04-06 09:06:31",
        "orbit_uncertainty" : "7",
        "minimum_orbit_intersection" : ".00308039",
        "jupiter_tisserand_invariant" : "4.980",
        "epoch_osculation" : "2458000.5",
        "eccentricity" : ".2762097949122106",
        "semi_major_axis" : "1.281872792015584",
        "inclination" : "15.06090923527308",
        "ascending_node_longitude" : "204.3000208034743",
        "orbital_period" : "530.1097857969551",
        "perihelion_distance" : ".9278069710294166",
        "perihelion_argument" : "310.0435294306135",
        "aphelion_distance" : "1.635938613001751",
        "perihelion_time" : "2457873.328845424130",
        "mean_anomaly" : "86.3625174896295",
        "mean_motion" : ".6791046112434693",
        "equinox" : "J2000"
      }
    }, {
      "links" : {
        "self" : "https://api.nasa.gov/neo/rest/v1/neo/3667485?api_key=t0TVs3DtDT2H8Oy2Zy8m2eVrNsAVKAexjcZXUckd"
      },
      "neo_reference_id" : "3667485",
      "name" : "(2014 GL49)",
      "nasa_jpl_url" : "http://ssd.jpl.nasa.gov/sbdb.cgi?sstr=3667485",
      "absolute_magnitude_h" : 20.7,
      "estimated_diameter" : {
        "kilometers" : {
          "estimated_diameter_min" : 0.1925550782,
          "estimated_diameter_max" : 0.4305662442
        },
        "meters" : {
          "estimated_diameter_min" : 192.5550781879,
          "estimated_diameter_max" : 430.566244241
        },
        "miles" : {
          "estimated_diameter_min" : 0.1196481415,
          "estimated_diameter_max" : 0.2675413778
        },
        "feet" : {
          "estimated_diameter_min" : 631.7424027221,
          "estimated_diameter_max" : 1412.6189567557
        }
      },
      "is_potentially_hazardous_asteroid" : false,
      "close_approach_data" : [ {
        "close_approach_date" : "2009-12-08",
        "epoch_date_close_approach" : 1260259200000,
        "relative_velocity" : {
          "kilometers_per_second" : "15.1533495648",
          "kilometers_per_hour" : "54552.0584332012",
          "miles_per_hour" : "33896.5276414521"
        },
        "miss_distance" : {
          "astronomical" : "0.3528263701",
          "lunar" : "137.2494506836",
          "kilometers" : "52782072",
          "miles" : "32797260"
        },
        "orbiting_body" : "Earth"
      } ],
      "orbital_data" : {
        "orbit_id" : "26",
        "orbit_determination_date" : "2017-04-06 08:41:36",
        "orbit_uncertainty" : "1",
        "minimum_orbit_intersection" : ".0648365",
        "jupiter_tisserand_invariant" : "5.029",
        "epoch_osculation" : "2458000.5",
        "eccentricity" : ".5215061300120535",
        "semi_major_axis" : "1.239249330711659",
        "inclination" : "4.756573860906775",
        "ascending_node_longitude" : "83.08140371009139",
        "orbital_period" : "503.8908432722077",
        "perihelion_distance" : ".5929732081321943",
        "perihelion_argument" : "27.5527028206705",
        "aphelion_distance" : "1.885525453291124",
        "perihelion_time" : "2458215.292615463197",
        "mean_anomaly" : "206.5434675006013",
        "mean_motion" : ".7144404483760857",
        "equinox" : "J2000"
      }
    } ]
  }
}